NORAD_CAT_ID,OBJECT_NAME,OBJECT_TYPE,EPOCH,MEAN_MOTION,ECCENTRICITY,INCLINATION,RA_OF_ASC_NODE,ARG_OF_PERICENTER,MEAN_ANOMALY,BSTAR,MEAN_MOTION_DOT,MEAN_MOTION_DDOT,TLE_LINE0,TLE_LINE1,TLE_LINE2,SEMIMAJOR_AXIS,PERIOD,APOGEE,PERIGEE,DECAYED
56794.0,STARLINK-6060,PAYLOAD,2023-08-08 02:48:18,15.69922893,0.0002844,69.9987,219.7398,260.8382,99.2492,4.1952e-05,4.834e-05,0.0,0 STARLINK-6060,1 56794U 23078AD  23220.11687587  .00004834  00000-0  41952-4 0  9997,2 56794  69.9987 219.7398 0002844 260.8382  99.2492 15.69922893 11110,6737.255,91.724,361.036,357.204,0.0
56794.0,STARLINK-6060,PAYLOAD,2023-08-09 09:23:20,15.69927333,0.0002733,69.9988,216.1581,260.2945,99.7942,-4.5643e-06,-7.61e-06,0.0,0 STARLINK-6060,1 56794U 23078AD  23221.39120630 -.00000761  00000-0 -45643-5 0  9998,2 56794  69.9988 216.1581 0002733 260.2945  99.7942 15.69927333 11313,6737.242,91.724,360.948,357.266,0.0
56794.0,STARLINK-6060,PAYLOAD,2023-08-10 09:51:22,15.69924889,0.0003217,69.9964,213.2934,261.9156,98.1675,-4.1445e-07,-2.63e-06,0.0,0 STARLINK-6060,1 56794U 23078AD  23222.41067675 -.00000263  00000-0 -41445-6 0  9995,2 56794  69.9964 213.2934 0003217 261.9156  98.1675 15.69924889 11473,6737.249,91.724,361.281,356.947,0.0
56794.0,STARLINK-6060,PAYLOAD,2023-08-10 11:23:07,15.6991826,0.0003316,69.9967,213.1135,265.6837,94.398,-3.8008e-06,-6.7e-06,0.0,0 STARLINK-6060,1 56794U 23078AD  23222.47439793 -.00000670  00000-0 -38008-5 0  9997,2 56794  69.9967 213.1135 0003316 265.6837  94.3980 15.69918260 11489,6737.268,91.725,361.367,356.899,0.0
56794.0,STARLINK-6060,PAYLOAD,2023-08-11 08:47:39,15.69926825,0.000322,69.9962,210.6057,265.2049,94.8779,1.0224e-05,1.017e-05,0.0,0 STARLINK-6060,1 56794U 23078AD  23223.36642477  .00001017  00000-0  10224-4 0  9994,2 56794  69.9962 210.6057 0003220 265.2049  94.8779 15.69926825 11627,6737.243,91.724,361.278,356.939,0.0
56794.0,STARLINK-6060,PAYLOAD,2023-08-12 01:36:56,15.69908924,0.0003542,69.997,208.6341,268.9122,91.1668,6.5509e-06,5.74e-06,0.0,0 STARLINK-6060,1 56794U 23078AD  23224.06731856  .00000574  00000-0  65509-5 0  9996,2 56794  69.9970 208.6341 0003542 268.9122  91.1668 15.69908924 11737,6737.295,91.725,361.546,356.773,0.0
56794.0,STARLINK-6060,PAYLOAD,2023-08-12 10:47:25,15.69929876,0.0003055,69.9966,207.5592,271.4073,88.6773,3.0708e-05,3.482e-05,0.0,0 STARLINK-6060,1 56794U 23078AD  23224.44960642  .00003482  00000-0  30708-4 0  9998,2 56794  69.9966 207.5592 0003055 271.4073  88.6773 15.69929876 11794,6737.235,91.724,361.158,357.041,0.0
56794.0,STARLINK-6060,PAYLOAD,2023-08-13 02:04:57,15.69923617,0.0002825,69.9977,205.7666,271.513,88.5742,1.4123e-05,1.486e-05,0.0,0 STARLINK-6060,1 56794U 23078AD  23225.08677911  .00001486  00000-0  14123-4 0  9998,2 56794  69.9977 205.7666 0002825 271.5130  88.5742 15.69923617 11890,6737.253,91.724,361.021,357.214,0.0
56794.0,STARLINK-6060,PAYLOAD,2023-08-14 01:01:15,15.69913508,0.0003621,69.9979,203.0823,272.9941,87.084,1.8531e-05,2.015e-05,0.0,0 STARLINK-6060,1 56794U 23078AD  23226.04253480  .00002015  00000-0  18531-4 0  9992,2 56794  69.9979 203.0823 0003621 272.9941  87.0840 15.69913508 12047,6737.281,91.725,361.586,356.707,0.0
56794.0,STARLINK-6060,PAYLOAD,2023-08-15 07:36:17,15.69924766,0.0003489,69.9973,199.4989,273.807,86.2727,6.5723e-06,5.77e-06,0.0,0 STARLINK-6060,1 56794U 23078AD  23227.31686432  .00000577  00000-0  65723-5 0  9997,2 56794  69.9973 199.4989 0003489 273.8070  86.2727 15.69924766 12242,6737.249,91.724,361.465,356.764,0.0
56794.0,STARLINK-6060,PAYLOAD,2023-08-16 09:36:04,15.69925008,0.0003495,69.9974,196.4534,274.6623,85.4173,1.3095e-05,1.362e-05,0.0,0 STARLINK-6060,1 56794U 23078AD  23228.40004761  .00001362  00000-0  13095-4 0  9994,2 56794  69.9974 196.4534 0003495 274.6623  85.4173 15.69925008 12411,6737.249,91.724,361.468,356.759,0.0
56794.0,STARLINK-6060,PAYLOAD,2023-08-16 15:43:04,15.69930887,0.000323,69.9975,195.7372,273.4678,86.6148,1.8092e-05,1.964e-05,0.0,0 STARLINK-6060,1 56794U 23078AD  23228.65490947  .00001964  00000-0  18092-4 0  9996,2 56794  69.9975 195.7372 0003230 273.4678  86.6148 15.69930887 12458,6737.232,91.724,361.273,356.921,0.0
56794.0,STARLINK-6060,PAYLOAD,2023-08-17 07:00:36,15.69917911,0.0003511,69.9976,193.9462,279.6962,80.3837,6.7882e-06,6.03e-06,0.0,0 STARLINK-6060,1 56794U 23078AD  23229.29208659  .00000603  00000-0  67882-5 0  9995,2 56794  69.9976 193.9462 0003511 279.6962  80.3837 15.69917911 12555,6737.269,91.725,361.499,356.768,0.0
56794.0,STARLINK-6060,PAYLOAD,2023-08-18 09:00:22,15.69927346,0.0003098,69.9987,190.9012,273.0066,87.0775,1.2155e-05,1.249e-05,0.0,0 STARLINK-6060,1 56794U 23078AD  23230.37526572  .00001249  00000-0  12155-4 0  9992,2 56794  69.9987 190.9012 0003098 273.0066  87.0775 15.69927346 12725,6737.242,91.724,361.194,357.02,0.0
56794.0,STARLINK-6060,PAYLOAD,2023-08-18 15:07:22,15.69934475,0.000365,69.9969,190.1834,272.6228,87.455,1.1602e-05,1.183e-05,0.0,0 STARLINK-6060,1 56794U 23078AD  23230.63012460  .00001183  00000-0  11602-4 0  9990,2 56794  69.9969 190.1834 0003650 272.6228  87.4550 15.69934475 12768,6737.221,91.724,361.546,356.627,0.0
56794.0,STARLINK-6060,PAYLOAD,2023-08-19 00:17:55,15.69906806,0.0004051,69.9973,189.1098,289.917,70.1589,-6.7084e-06,-1.019e-05,0.0,0 STARLINK-6060,1 56794U 23078AD  23231.01244734 -.00001019  00000-0 -67084-5 0  9990,2 56794  69.9973 189.1098 0004051 289.9170  70.1589 15.69906806 12821,6737.301,91.725,361.895,356.436,0.0
56794.0,STARLINK-6060,PAYLOAD,2023-08-19 06:24:55,15.69914109,0.0003511,69.997,188.3923,284.3584,75.7222,1.3811e-06,-4.7e-07,0.0,0 STARLINK-6060,1 56794U 23078AD  23231.26730899 -.00000047  00000-0  13811-5 0  9997,2 56794  69.9970 188.3923 0003511 284.3584  75.7222 15.69914109 12868,6737.28,91.725,361.51,356.779,0.0
56794.0,STARLINK-6060,PAYLOAD,2023-08-19 23:14:11,15.69913602,0.0003429,69.9978,186.421,269.4583,90.622,2.2223e-05,2.459e-05,0.0,0 STARLINK-6060,1 56794U 23078AD  23231.96818868  .00002459  00000-0  22223-4 0  9991,2 56794  69.9978 186.4210 0003429 269.4583  90.6220 15.69913602 12978,6737.281,91.725,361.456,356.836,0.0
56794.0,STARLINK-6060,PAYLOAD,2023-08-20 23:42:13,15.69927538,0.0003316,69.9975,183.5552,274.4158,85.6659,6.3839e-07,-1.36e-06,0.0,0 STARLINK-6060,1 56794U 23078AD  23232.98765268 -.00000136  00000-0  63839-6 0  9990,2 56794  69.9975 183.5552 0003316 274.4158  85.6659 15.69927538 13133,6737.241,91.724,361.34,356.872,0.0
56794.0,STARLINK-6060,PAYLOAD,2023-08-21 07:21:00,15.6990755,0.0002501,69.9982,182.6625,275.8481,84.243,5.6837e-06,4.71e-06,0.0,0 STARLINK-6060,1 56794U 23078AD  23233.30625020  .00000471  00000-0  56837-5 0  9998,2 56794  69.9982 182.6625 0002501 275.8481  84.2430 15.69907550 13180,6737.298,91.725,360.848,357.478,0.0
56794.0,STARLINK-6060,PAYLOAD,2023-08-22 07:49:01,15.69916494,0.0002979,69.9989,179.7964,262.2039,97.8819,-2.0744e-06,-4.62e-06,0.0,0 STARLINK-6060,1 56794U 23078AD  23234.32571388 -.00000462  00000-0 -20744-5 0  9998,2 56794  69.9989 179.7964 0002979 262.2039  97.8819 15.69916494 13344,6737.273,91.725,361.145,357.131,0.0
56794.0,STARLINK-6060,PAYLOAD,2023-08-22 23:06:32,15.69925181,0.0003163,69.9982,178.0024,266.0926,93.9908,1.0773e-05,1.083e-05,0.0,0 STARLINK-6060,1 56794U 23078AD  23234.96287326  .00001083  00000-0  10773-4 0  9992,2 56794  69.9982 178.0024 0003163 266.0926  93.9908 15.69925181 13449,6737.248,91.724,361.244,356.982,0.0
56794.0,STARLINK-6060,PAYLOAD,2023-08-24 07:13:19,15.69927721,0.0003245,69.9977,174.2406,248.6771,111.4079,5.9517e-06,5.03e-06,0.0,0 STARLINK-6060,1 56794U 23078AD  23236.30092162  .00000503  00000-0  59517-5 0  9990,2 56794  69.9977 174.2406 0003245 248.6771 111.4079 15.69927721 13391,6737.241,91.724,361.292,356.92,0.0
56794.0,STARLINK-6060,PAYLOAD,2023-08-25 06:09:36,15.69927708,0.0003589,69.9978,171.5509,279.2393,80.8396,1.0143e-05,1.007e-05,0.0,0 STARLINK-6060,1 56794U 23078AD  23237.25667334  .00001007  00000-0  10143-4 0  9995,2 56794  69.9978 171.5509 0003589 279.2393  80.8396 15.69927708 13540,6737.241,91.724,361.524,356.688,0.0
56794.0,STARLINK-6060,PAYLOAD,2023-08-25 22:58:53,15.69910861,0.0003446,69.9971,169.5792,276.7834,83.297,1.7537e-05,1.895e-05,0.0,0 STARLINK-6060,1 56794U 23078AD  23237.95756656  .00001895  00000-0  17537-4 0  9997,2 56794  69.9971 169.5792 0003446 276.7834  83.2970 15.69910861 13916,6737.289,91.725,361.476,356.832,0.0
56794.0,STARLINK-6060,PAYLOAD,2023-08-26 05:05:54,15.69914302,0.000292,69.998,168.8645,259.7454,100.3412,1.781e-05,1.928e-05,0.0,0 STARLINK-6060,1 56794U 23078AD  23238.21243329  .00001928  00000-0  17810-4 0  9996,2 56794  69.9980 168.8645 0002920 259.7454 100.3412 15.69914302 13691,6737.279,91.725,361.111,357.177,0.0
56794.0,STARLINK-6060,PAYLOAD,2023-08-26 20:23:24,15.69927239,0.0003297,69.9965,167.0714,270.3107,89.7711,2.9872e-05,3.381e-05,0.0,0 STARLINK-6060,1 56794U 23078AD  23238.84958785  .00003381  00000-0  29872-4 0  9990,2 56794  69.9965 167.0714 0003297 270.3107  89.7711 15.69927239 13790,6737.242,91.724,361.328,356.886,0.0
56794.0,STARLINK-6060,PAYLOAD,2023-08-27 04:01:44,15.70253373,0.0003744,69.9977,166.1772,272.0786,87.9981,0.00037344,0.00045556,0.0,0 STARLINK-6060,1 56794U 23078AD  23239.16788133  .00045556  00000-0  37344-3 0  9996,2 56794  69.9977 166.1772 0003744 272.0786  87.9981 15.70253373 14104,6736.309,91.705,360.696,355.652,0.0
56794.0,STARLINK-6060,PAYLOAD,2023-08-27 17:47:56,15.699174,0.0003543,69.9974,164.5659,269.8675,90.2114,1.3693e-05,1.433e-05,0.0,0 STARLINK-6060,1 56794U 23078AD  23239.74163194  .00001433  00000-0  13693-4 0  9992,2 56794  69.9974 164.5659 0003543 269.8675  90.2114 15.69917400 14195,6737.27,91.725,361.522,356.748,0.0
56794.0,STARLINK-6060,PAYLOAD,2023-08-28 12:09:22,15.69621318,0.0003276,69.9981,162.4178,244.87,115.2155,-0.00033533,-0.00039842,0.0,0 STARLINK-6060,1 56794U 23078AD  23240.50650700 -.00039842  00000-0 -33533-3 0  9993,2 56794  69.9981 162.4178 0003276 244.8700 115.2155 15.69621318 14318,6738.118,91.742,362.19,357.775,0.0
